COSMOS 2534 [GLONASS-M] 
1 44299U 19030A   26178.32513172  .00000100  00000+0  00000+0 0  9998
2 44299  64.3693 192.2752 0013562 275.0761  81.5437  2.13102451 55135
BEIDOU-3 IGSO-2         
1 44337U 19035A   26177.85739221 -.00000073  00000+0  00000+0 0  9998
2 44337  55.2494 158.7781 0039592 216.4480 327.7946  1.00263830 25763
NAVSTAR 78 (USA 293)    
1 44506U 19056A   26179.56514876 -.00000098  00000+0  00000+0 0  9993
2 44506  55.6312 330.6907 0062552 197.7173 125.3888  2.00570207 50290
BEIDOU-3 M24            
1 44542U 19061A   26179.51848630  .00000079  00000+0  00000+0 0  9990
2 44542  54.3968 182.3453 0008540 358.6533   1.3666  1.86229281 46003
BEIDOU-3 M23            
1 44543U 19061B   26178.30332279  .00000089  00000+0  00000+0 0  9995
2 44543  54.3956 182.3548 0005853 338.4891 198.3614  1.86227690 45981
EUTELSAT 5 WEST B       
1 44624U 19067A   26179.37553979 -.00000031  00000+0  00000+0 0  9999
2 44624   0.0630   9.0311 0003445  87.7301 309.9003  1.00271806 24541
BEIDOU-3 M22            
1 44793U 19078A   26179.35847846 -.00000084  00000+0  00000+0 0  9993
2 44793  53.9250 299.4342 0006295  52.2108 307.8484  1.86227483 44852
BEIDOU-3 M21            
1 44794U 19078B   26178.42444683 -.00000092  00000+0  00000+0 0  9992
2 44794  53.8986 299.4279 0004054  50.0511 309.9834  1.86227919 44847
COSMOS 2544 [GLONASS-M] 
1 44850U 19088A   26176.94531591 -.00000063  00000+0  00000+0 0  9994
2 44850  65.5707  73.4383 0012923 257.6247 102.2670  2.13102928 50901
BEIDOU-3 M19            
1 44864U 19090A   26179.35129987 -.00000067  00000+0  00000+0 0  9996
2 44864  56.5682  62.4212 0017425 297.4344 161.4191  1.86231816 44444
BEIDOU-3 M20            
1 44865U 19090B   26177.15791703 -.00000087  00000+0  00000+0 0  9996
2 44865  56.5685  62.5279 0015273 312.0808 205.8058  1.86231543 44385
BEIDOU-3 G2             
1 45344U 20017A   26179.60630406 -.00000132  00000+0  00000+0 0  9995
2 45344   2.8871  47.5225 0002599  41.0597 126.4813  1.00272004 23370
COSMOS 2545 [GLONASS-M] 
1 45358U 20018A   26179.01732981 -.00000078  00000+0  00000+0 0  9996
2 45358  64.3482 312.0376 0008767 229.6798 130.2344  2.13102628 48898
BEIDOU-3 G3             
1 45807U 20040A   26179.39849132 -.00000345  00000+0  00000+0 0  9995
2 45807   2.4745  67.4777 0002604 330.9814 132.0434  1.00273939 22180
NAVSTAR 79 (USA 304)    
1 45854U 20041A   26179.34917372 -.00000073  00000+0  00000+0 0  9993
2 45854  56.6772  28.5103 0064610 204.4645 260.6192  2.00558717 44269
GALAXY 30 (G-30)        
1 46114U 20056C   26179.56565435  .00000048  00000+0  00000+0 0  9993
2 46114   0.0186  20.7083 0002285  74.0504 260.5201  1.00272318 21407
COSMOS 2547 [GLONASS-K] 
1 46805U 20075A   26178.26844155  .00000101  00000+0  00000+0 0  9996
2 46805  64.6001 192.1390 0009405 239.7377 120.2212  2.13100208 44121
NAVSTAR 80 (USA 309)    
1 46826U 20078A   26179.28498939  .00000080  00000+0  00000+0 0  9996
2 46826  53.9788 210.3283 0073892 207.5403 187.9193  2.00565202 41732
NAVSTAR 81 (USA 319)    
1 48859U 21054A   26179.23386596 -.00000100  00000+0  00000+0 0  9993
2 48859  55.1689 332.0156 0025757 228.3400 316.5164  2.00568642 36979
QZS-1R (MICHIBIKI-1R)   
1 49336U 21096A   26177.61891060 -.00000312  00000+0  00000+0 0  9992
2 49336  37.4804  79.4425 0755635 271.9684 279.4688  1.00253032 17101
GSAT0223 (GALILEO 27)   
1 49809U 21116A   26178.53905481 -.00000093  00000+0  00000+0 0  9991
2 49809  57.1576 341.3951 0001693 183.6278 169.3776  1.70476510 28351
GSAT0224 (GALILEO 28)   
1 49810U 21116B   26178.36614440 -.00000094  00000+0  00000+0 0  9997
2 49810  57.1577 341.3987 0001418 161.6476 197.8652  1.70476529 28375
COSMOS 2557 [GLONASS-K] 
1 52984U 22075A   26178.43265500 -.00000082  00000+0  00000+0 0  9992
2 52984  64.2922 314.1237 0010324 273.3478  86.5234  2.13102281 30933
COSMOS 2559 [GLONASS-K] 
1 54031U 22130A   26178.72156692 -.00000081  00000+0  00000+0 0  9991
2 54031  64.2645 314.1973 0012766 179.1655 180.8266  2.13101825 28910
COSMOS 2564 [GLONASS-M] 
1 54377U 22161A   26178.56481008  .00000099  00000+0  00000+0 0  9990
2 54377  64.7427 192.3671 0012257 225.0587 134.8937  2.13102113 27854
NAVSTAR 82 (USA 343)    
1 55268U 23009A   26178.92981966  .00000027  00000+0  00000+0 0  9991
2 55268  55.1241 148.0967 0006263 317.3274  46.4275  2.00570960 25469
BEIDOU-3 G4             
1 56564U 23066A   26179.66775937 -.00000269  00000+0  00000+0 0  9994
2 56564   0.4745 334.3818 0004901 175.3810 147.4406  1.00270497 11500
NVS-01 (IRNSS-1J)       
1 56759U 23076A   26179.54482344 -.00000322  00000+0  00000+0 0  9995
2 56759   2.1400 243.8304 0002806  10.9585 347.5450  1.00274047 11228
COSMOS 2569 [GLONASS-K2]
1 57517U 23114A   26179.04637641 -.00000043  00000+0  00000+0 0  9998
2 57517  65.3081  72.2543 0010278 296.6043  63.3380  2.13103857 22491
BEIDOU-3 M28            
1 58654U 23207A   26177.96453260 -.00000082  00000+0  00000+0 0  9999
2 58654  55.7613  61.9731 0002966 353.1453   6.8963  1.86229899 17027
BEIDOU-3 M26            
1 58655U 23207B   26179.37291464 -.00000068  00000+0  00000+0 0  9997
2 58655  55.7647  61.9122 0002589 322.9060  37.1290  1.86229888 17037
