OBJECT_NAME,OBJECT_ID,EPOCH,MEAN_MOTION,ECCENTRICITY,INCLINATION,RA_OF_ASC_NODE,ARG_OF_PERICENTER,MEAN_ANOMALY,EPHEMERIS_TYPE,CLASSIFICATION_TYPE,NORAD_CAT_ID,ELEMENT_SET_NO,REV_AT_EPOCH,BSTAR,MEAN_MOTION_DOT,MEAN_MOTION_DDOT
COSMOS 2534 (758),2019-030A,2026-06-27T07:48:11.380608,2.13102451,.00135629,64.3693,192.2752,275.0761,81.5437,0,U,44299,999,5513,0,.1E-5,0
BEIDOU-3 IGSO-2 (C39),2019-035A,2026-06-26T20:34:38.686944,1.00263830,.00395927,55.2494,158.7781,216.4480,327.7946,0,U,44337,999,2576,0,-.73E-6,0
GPS BIII-2  (PRN 18),2019-056A,2026-06-28T13:33:48.852864,2.00570207,.00625529,55.6312,330.6907,197.7173,125.3888,0,U,44506,999,5029,0,-.98E-6,0
BEIDOU-3 M24 (C46),2019-061A,2026-06-28T12:26:37.216320,1.86229281,.00085409,54.3968,182.3453,358.6533,1.3666,0,U,44542,999,4600,0,.79E-6,0
BEIDOU-3 M23 (C45),2019-061B,2026-06-27T07:16:47.089056,1.86227690,.00058534,54.3956,182.3548,338.4891,198.3614,0,U,44543,999,4598,0,.89E-6,0
EUTELSAT 5 WEST B (EGNOS/PRN 121),2019-067A,2026-06-28T09:00:46.637856,1.00271806,.00034456,0.0630,9.0311,87.7301,309.9003,0,U,44624,999,2454,0,-.31E-6,0
BEIDOU-3 M22 (C44),2019-078A,2026-06-28T08:36:12.538944,1.86227483,.00062953,53.9250,299.4342,52.2108,307.8484,0,U,44793,999,4485,0,-.84E-6,0
BEIDOU-3 M21 (C43),2019-078B,2026-06-27T10:11:12.206112,1.86227919,.00040543,53.8986,299.4279,50.0511,309.9834,0,U,44794,999,4484,0,-.92E-6,0
COSMOS 2544 (759),2019-088A,2026-06-25T22:41:15.294624,2.13102928,.00129231,65.5707,73.4383,257.6247,102.2670,0,U,44850,999,5090,0,-.63E-6,0
BEIDOU-3 M19 (C41),2019-090A,2026-06-28T08:25:52.308768,1.86231816,.00174253,56.5682,62.4212,297.4344,161.4191,0,U,44864,999,4444,0,-.67E-6,0
BEIDOU-3 M20 (C42),2019-090B,2026-06-26T03:47:24.031392,1.86231543,.00152731,56.5685,62.5279,312.0808,205.8058,0,U,44865,999,4438,0,-.87E-6,0
BEIDOU-3 G2 (C60),2020-017A,2026-06-28T14:33:04.670784,1.00272004,.00025991,2.8871,47.5225,41.0597,126.4813,0,U,45344,999,2337,0,-.132E-5,0
COSMOS 2545 (760),2020-018A,2026-06-28T00:24:57.295584,2.13102628,.00087676,64.3482,312.0376,229.6798,130.2344,0,U,45358,999,4889,0,-.78E-6,0
BEIDOU-3 G3 (C61),2020-040A,2026-06-28T09:33:49.650048,1.00273939,.00026044,2.4745,67.4777,330.9814,132.0434,0,U,45807,999,2218,0,-.345E-5,0
GPS BIII-3  (PRN 23),2020-041A,2026-06-28T08:22:48.609408,2.00558717,.00646106,56.6772,28.5103,204.4645,260.6192,0,U,45854,999,4426,0,-.73E-6,0
GALAXY 30 (WAAS/PRN 135),2020-056C,2026-06-28T13:34:32.535840,1.00272318,.00022856,0.0186,20.7083,74.0504,260.5201,0,U,46114,999,2140,0,.48E-6,0
COSMOS 2547 (705K),2020-075A,2026-06-27T06:26:33.349920,2.13100208,.00094051,64.6001,192.1390,239.7377,120.2212,0,U,46805,999,4412,0,.101E-5,0
GPS BIII-4  (PRN 14),2020-078A,2026-06-28T06:50:23.083296,2.00565202,.00738929,53.9788,210.3283,207.5403,187.9193,0,U,46826,999,4173,0,.8E-6,0
GPS BIII-5  (PRN 11),2021-054A,2026-06-28T05:36:46.018944,2.00568642,.00257577,55.1689,332.0156,228.3400,316.5164,0,U,48859,999,3697,0,-.1E-5,0
QZS-1R (QZSS/PRN 196),2021-096A,2026-06-26T14:51:13.875840,1.00253032,.0755635,37.4804,79.4425,271.9684,279.4688,0,U,49336,999,1710,0,-.312E-5,0
GSAT0223 (GALILEO 27),2021-116A,2026-06-27T12:56:14.335584,1.70476510,.00016938,57.1576,341.3951,183.6278,169.3776,0,U,49809,999,2835,0,-.93E-6,0
GSAT0224 (GALILEO 28),2021-116B,2026-06-27T08:47:14.876160,1.70476529,.00014188,57.1577,341.3987,161.6476,197.8652,0,U,49810,999,2837,0,-.94E-6,0
COSMOS 2557 (706K),2022-075A,2026-06-27T10:23:01.392000,2.13102281,.00103244,64.2922,314.1237,273.3478,86.5234,0,U,52984,999,3093,0,-.82E-6,0
COSMOS 2559 (707K),2022-130A,2026-06-27T17:19:03.381888,2.13101825,.0012766,64.2645,314.1973,179.1655,180.8266,0,U,54031,999,2891,0,-.81E-6,0
COSMOS 2564 (761),2022-161A,2026-06-27T13:33:19.590912,2.13102113,.00122573,64.7427,192.3671,225.0587,134.8937,0,U,54377,999,2785,0,.99E-6,0
GPS BIII-6  (PRN 28),2023-009A,2026-06-27T22:18:56.418624,2.00570960,.00062636,55.1241,148.0967,317.3274,46.4275,0,U,55268,999,2546,0,.27E-6,0
BEIDOU-3 G4 (C62),2023-066A,2026-06-28T16:01:34.409568,1.00270497,.00049015,0.4745,334.3818,175.3810,147.4406,0,U,56564,999,1150,0,-.269E-5,0
NVS-01 (IRNSS-1J),2023-076A,2026-06-28T13:04:32.745216,1.00274047,.00028064,2.1400,243.8304,10.9585,347.5450,0,U,56759,999,1122,0,-.322E-5,0
COSMOS 2569 (703K),2023-114A,2026-06-28T01:06:46.921824,2.13103857,.00102782,65.3081,72.2543,296.6043,63.3380,0,U,57517,999,2249,0,-.43E-6,0
BEIDOU-3 M28 (C50),2023-207A,2026-06-26T23:08:55.616640,1.86229899,.00029669,55.7613,61.9731,353.1453,6.8963,0,U,58654,999,1702,0,-.82E-6,0
BEIDOU-3 M26 (C48),2023-207B,2026-06-28T08:56:59.824896,1.86229888,.00025895,55.7647,61.9122,322.9060,37.1290,0,U,58655,999,1703,0,-.68E-6,0
